From: horizons@ssd.jpl.nasa.gov (Horizons Ephemeris System)
Subject: [Horizons] SMALL BODY #C(500@10)_T(10P/Tempel 2) (1/1)
Date: March 1, 2021 at 1:22:46 PM PST

Automated mail xmit by MAIL_REQUEST, PID= 2301 Mon Mar  1 13:22:46 2021
++++++++++++++++++++++++++++++++ (part 1 of 1)  +++++++++++++++++++++++++++++++
*******************************************************************************
JPL/HORIZONS                    10P/Tempel 2               2021-Mar-01 13:22:45
Rec #:90000213 (+COV) Soln.date: 2020-Jun-17_10:11:51   # obs: 3689 (2003-2020)

IAU76/J2000 helio. ecliptic osc. elements (au, days, deg., period=Julian yrs):

 EPOCH=  2455866.5 ! 2011-Nov-01.0000000 (TDB)    RMSW= n.a.
  EC= .5362731523679858   QR= 1.421805958451013   TP= 2455382.2881781529
  OM= 117.8023017705041   W= 195.6077883346506    IN= 12.02422299818989
  A= 3.066041929017819    MA= 88.89397523409653   ADIST= 4.710277899584625
  PER= 5.3687767967824    N= .183584887           ANGMOM= .025423529
  DAN= 4.51763            DDN= 1.44035            L= 313.0838355
  B= -3.2131164           MOID= .41042399         TP= 2010-Jul-04.7881781529

Comet physical (GM= km^3/s^2; RAD= km):
  GM= n.a.                RAD= 5.3
  M1=  14.1     M2=  n.a.     k1=  5.5    k2= n.a.     PHCOF= n.a.

Comet non-gravitational force model (AMRAT=m^2/kg;A1-A3=au/d^2;DT=days;R0=au):
  AMRAT=  0.                                      DT=  0.
  A1= 1.94605588913E-10   A2= 6.633670418523E-12  A3= 8.562285453081E-11
Standard model:
  ALN=  .1112620426   NK=  4.6142   NM=  2.15     NN=  5.093    R0=  2.808

COMET comments 
1: soln ref.= JPL#K214/12, data arc: 2003-03-07 to 2020-06-13
2: k1=5.5;
*******************************************************************************


*******************************************************************************
Ephemeris / MAIL_REQUEST Mon Mar  1 13:22:46 2021 Pasadena, USA  / Horizons
*******************************************************************************
Target body name: 10P/Tempel 2                    {source: JPL#K214/12}
Center body name: Sun (10)                        {source: DE431}
Center-site name: BODY CENTER
*******************************************************************************
Start time      : A.D. 1990-Jan-01 00:00:00.0000 TDB
Stop  time      : A.D. 2020-Dec-31 00:00:00.0000 TDB
Step-size       : 10080 minutes
*******************************************************************************
Center geodetic : 0.00000000,0.00000000,0.0000000 {E-lon(deg),Lat(deg),Alt(km)}
Center cylindric: 0.00000000,0.00000000,0.0000000 {E-lon(deg),Dxy(km),Dz(km)}
Center radii    : 696000.0 x 696000.0 x 696000.0 k{Equator, meridian, pole}    
Small perturbers: Yes                             {source: SB431-N16}
Output units    : AU-D
Output type     : GEOMETRIC cartesian states
Output format   : 6 (LT, range, and range-rate)
Reference frame : Ecliptic of J2000.0
*******************************************************************************
Initial IAU76/J2000 heliocentric ecliptic osculating elements (au, days, deg.):
 EPOCH=  2455866.5 ! 2011-Nov-01.0000000 (TDB)    RMSW= n.a.                  
  EC= .5362731523679858   QR= 1.421805958451013   TP= 2455382.2881781529      
  OM= 117.8023017705041   W= 195.6077883346506    IN= 12.02422299818989       
 Equivalent ICRF heliocentric equatorial cartesian coordinates (au, au/d):
  X=-4.111132782935660E-01  Y= 3.570838908816635E+00  Z= 1.225053933782424E+00
 VX=-6.952627306346534E-03 VY= 2.505900507289719E-03 VZ= 2.171709538440546E-03
Comet physical (GM= km^3/s^2; RAD= km):                                        
  GM= n.a.                RAD= 5.3                                            
  M1=  14.1     M2=  n.a.     k1=  5.5    k2= n.a.     PHCOF= n.a.            
Comet non-gravitational force model (AMRAT=m^2/kg;A1-A3=au/d^2;DT=days;R0=au): 
  AMRAT=  0.                                      DT=  0.                     
  A1= 1.94605588913E-10   A2= 6.633670418523E-12  A3= 8.562285453081E-11      
Standard model:                                                               
  ALN=  .1112620426   NK=  4.6142   NM=  2.15     NN=  5.093    R0=  2.808    
*******************************************************************************
           JDTDB,            Calendar Date (TDB),                     LT,                     RG,                     RR,
**************************************************************************************************************************
$$SOE
2450048.500000000, A.D. 1995-Nov-27 00:00:00.0000,  2.438690825912752E-02,  4.222462272587031E+00,  2.730157943567657E-03,
2450055.500000000, A.D. 1995-Dec-04 00:00:00.0000,  2.449619472252975E-02,  4.241384637149078E+00,  2.676266164542120E-03,
2450062.500000000, A.D. 1995-Dec-11 00:00:00.0000,  2.460330654391607E-02,  4.259930474118082E+00,  2.622578051278965E-03,
2450069.500000000, A.D. 1995-Dec-18 00:00:00.0000,  2.470825188610703E-02,  4.278101196842608E+00,  2.569090064662998E-03,
2450076.500000000, A.D. 1995-Dec-25 00:00:00.0000,  2.481103876550035E-02,  4.295898193318895E+00,  2.515798477925636E-03,
2450083.500000000, A.D. 1996-Jan-01 00:00:00.0000,  2.491167504085447E-02,  4.313322824248789E+00,  2.462699175860025E-03,
2450090.500000000, A.D. 1996-Jan-08 00:00:00.0000,  2.501016839341234E-02,  4.330376419598276E+00,  2.409787517760226E-03,
2450097.500000000, A.D. 1996-Jan-15 00:00:00.0000,  2.510652632056977E-02,  4.347060277501199E+00,  2.357059387349460E-03,
2450104.500000000, A.D. 1996-Jan-22 00:00:00.0000,  2.520075619547886E-02,  4.363375674579276E+00,  2.304512774171447E-03,
2450111.500000000, A.D. 1996-Jan-29 00:00:00.0000,  2.529286532154275E-02,  4.379323875377552E+00,  2.252145682450202E-03,
2450118.500000000, A.D. 1996-Feb-05 00:00:00.0000,  2.538286088821304E-02,  4.394906124710991E+00,  2.199954541006281E-03,
2450125.500000000, A.D. 1996-Feb-12 00:00:00.0000,  2.547074992664855E-02,  4.410123639986996E+00,  2.147935278111595E-03,
2450132.500000000, A.D. 1996-Feb-19 00:00:00.0000,  2.555653930526434E-02,  4.424977610434780E+00,  2.096083948160957E-03,
2450139.500000000, A.D. 1996-Feb-26 00:00:00.0000,  2.564023573650331E-02,  4.439469198277796E+00,  2.044396771425692E-03,
2450146.500000000, A.D. 1996-Mar-04 00:00:00.0000,  2.572184578224012E-02,  4.453599539669424E+00,  1.992870067951706E-03,
2450153.500000000, A.D. 1996-Mar-11 00:00:00.0000,  2.580137585652258E-02,  4.467369745167616E+00,  1.941500194104030E-03,
2450160.500000000, A.D. 1996-Mar-18 00:00:00.0000,  2.587883222556466E-02,  4.480780899733687E+00,  1.890283462813988E-03,
2450167.500000000, A.D. 1996-Mar-25 00:00:00.0000,  2.595422100317714E-02,  4.493834061941159E+00,  1.839215983760686E-03,
2450174.500000000, A.D. 1996-Apr-01 00:00:00.0000,  2.602754813696278E-02,  4.506530261585528E+00,  1.788293372948664E-03,
2450181.500000000, A.D. 1996-Apr-08 00:00:00.0000,  2.609881938632704E-02,  4.518870495876939E+00,  1.737510825378644E-03,
2450188.500000000, A.D. 1996-Apr-15 00:00:00.0000,  2.616804033441079E-02,  4.530855731506263E+00,  1.686864807108405E-03,
2450195.500000000, A.D. 1996-Apr-22 00:00:00.0000,  2.623521646396706E-02,  4.542486917782759E+00,  1.636353563807197E-03,
2450202.500000000, A.D. 1996-Apr-29 00:00:00.0000,  2.630035317419099E-02,  4.553764989548090E+00,  1.585974337718608E-03,
2450209.500000000, A.D. 1996-May-06 00:00:00.0000,  2.636345572221236E-02,  4.564690857046059E+00,  1.535723050921393E-03,
2450216.500000000, A.D. 1996-May-13 00:00:00.0000,  2.642452919268980E-02,  4.575265400658016E+00,  1.485595366333799E-03,
2450223.500000000, A.D. 1996-May-20 00:00:00.0000,  2.648357849623302E-02,  4.585489470629678E+00,  1.435587021793758E-03,
2450230.500000000, A.D. 1996-May-27 00:00:00.0000,  2.654060837263293E-02,  4.595363887630397E+00,  1.385693820921657E-03,
2450237.500000000, A.D. 1996-Jun-03 00:00:00.0000,  2.659562339253454E-02,  4.604889443042827E+00,  1.335911585022395E-03,
2450244.500000000, A.D. 1996-Jun-10 00:00:00.0000,  2.664862795724143E-02,  4.614066898929059E+00,  1.286236106584134E-03,
2450251.500000000, A.D. 1996-Jun-17 00:00:00.0000,  2.669962629611189E-02,  4.622896987579781E+00,  1.236663066225138E-03,
2450258.500000000, A.D. 1996-Jun-24 00:00:00.0000,  2.674862245847394E-02,  4.631380410114405E+00,  1.187187828175375E-03,
2450265.500000000, A.D. 1996-Jul-01 00:00:00.0000,  2.679562029448897E-02,  4.639517833167713E+00,  1.137805146285088E-03,
2450272.500000000, A.D. 1996-Jul-08 00:00:00.0000,  2.684062343659121E-02,  4.647309885676192E+00,  1.088509770822976E-03,
2450279.500000000, A.D. 1996-Jul-15 00:00:00.0000,  2.688363534080692E-02,  4.654757166032241E+00,  1.039298465306037E-03,
2450286.500000000, A.D. 1996-Jul-22 00:00:00.0000,  2.692465936219062E-02,  4.661860255145542E+00,  9.901689312139857E-04,
2450293.500000000, A.D. 1996-Jul-29 00:00:00.0000,  2.696369873659045E-02,  4.668619713285833E+00,  9.411174670174219E-04,
2450300.500000000, A.D. 1996-Aug-05 00:00:00.0000,  2.700075653034379E-02,  4.675036071372972E+00,  8.921395870351089E-04,
2450307.500000000, A.D. 1996-Aug-12 00:00:00.0000,  2.703583562742024E-02,  4.681109828750817E+00,  8.432308188277750E-04,
2450314.500000000, A.D. 1996-Aug-19 00:00:00.0000,  2.706893873439611E-02,  4.686841454048531E+00,  7.943868606241029E-04,
2450321.500000000, A.D. 1996-Aug-26 00:00:00.0000,  2.710006838702946E-02,  4.692231386319008E+00,  7.456035572115769E-04,
2450328.500000000, A.D. 1996-Sep-02 00:00:00.0000,  2.712922695539064E-02,  4.697280035927212E+00,  6.968768606254804E-04,
2450335.500000000, A.D. 1996-Sep-09 00:00:00.0000,  2.715641664725790E-02,  4.701987785138095E+00,  6.482027783684486E-04,
2450342.500000000, A.D. 1996-Sep-16 00:00:00.0000,  2.718163950827054E-02,  4.706354988143123E+00,  5.995772499357556E-04,
2450349.500000000, A.D. 1996-Sep-23 00:00:00.0000,  2.720489741389650E-02,  4.710381969669500E+00,  5.509958530569862E-04,
